satname,norad_id,inclination_deg,eccentricity,mean_motion_rev_per_day,perigee_km,apogee_km,l1,l2
STARLINK-1443,45660,53.0568,0.0001754,15.06393886,546.0155871072666,548.4450059548899,1 45660U 20035D   25363.76056370 -.00003584  00000+0 -22183-3 0  9994,2 45660  53.0568  20.5443 0001754 104.9224 255.1959 15.06393886308193
STARLINK-1446,45663,53.0273,0.0005401,15.39493891,443.9183013016209,451.2914676852506,1 45663U 20035G   25363.32406907  .00033152  00000+0  83825-3 0  9996,2 45663  53.0273 332.7901 0005401  56.5677 303.5842 15.39493891308825
STARLINK-1448,45665,53.0565,0.0001406,15.06399643,546.2389479309923,548.1863562531598,1 45665U 20035J   25363.76424701  .00000419  00000+0  47041-4 0  9999,2 45665  53.0565  20.5246 0001406  94.0171 266.0979 15.06399643308189
STARLINK-1451,45668,53.0568,0.0001668,15.06399019,546.0594159226503,548.3697132045882,1 45668U 20035M   25363.76797160  .00000519  00000+0  53729-4 0  9995,2 45668  53.0568  20.8268 0001668  88.0777 272.0403 15.06399019308194
STARLINK-1452,45669,53.0385,0.0002754,15.33501367,463.49076774623427,467.2601744153053,1 45669U 20035N   25363.42036983  .00121377  00000+0  36475-2 0  9991,2 45669  53.0385 353.5404 0002754 161.4899 198.6202 15.33501367308548
STARLINK-1453,45670,53.0542,0.0003485,15.37718361,450.4775109976581,455.2387145912762,1 45670U 20035P   25363.91670139  .00156563  00000+0  40895-2 0  9990,2 45670  53.0542 345.6223 0003485  78.8463 322.9664 15.37718361  5856
STARLINK-1454,45671,53.0553,0.0001438,15.06395535,546.2293754635211,548.2211096444807,1 45671U 20035Q   25363.45832034  .00001734  00000+0  13530-3 0  9990,2 45671  53.0553  21.9030 0001438  87.8481 272.2672 15.06395535308138
STARLINK-1456,45673,53.0549,0.0002134,15.3600039,456.49185331088756,459.4094955303308,1 45673U 20035S   25363.91670139  .00152400  00000+0  42102-2 0  9992,2 45673  53.0549  17.6108 0002134  69.5350 245.1000 15.36000390  5783
STARLINK-1457,45674,53.0521,0.0010875,15.51646096,404.5353848221648,419.30375786483637,1 45674U 20035T   25363.91670139  .00188143  00000+0  30410-2 0  9995,2 45674  53.0521   5.5728 0010875  30.9522 252.5743 15.51646096  5942
STARLINK-1458,45675,53.0548,0.0001511,15.06422521,546.0961254390513,548.188944914582,1 45675U 20035U   25363.46936815  .00012640  00000+0  86539-3 0  9994,2 45675  53.0548  21.8480 0001511  92.4892 267.6270 15.06422521308110
STARLINK-1460,45676,53.0553,0.0001357,15.06399988,546.2718249122463,548.1513645208524,1 45676U 20035V   25363.77161975  .00006401  00000+0  44824-3 0  9995,2 45676  53.0553  20.4932 0001357  93.4251 266.6893 15.06399988308156
STARLINK-1392,45677,53.0538,0.0001399,15.06402917,546.2337627553025,548.1714727803537,1 45677U 20035W   25363.78266637 -.00001193  00000+0 -61232-4 0  9996,2 45677  53.0538  20.4458 0001399  82.8924 277.2224 15.06402917308195
STARLINK-1394,45679,53.0539,0.0001489,15.36565987,455.2553902987984,457.2906776069094,1 45679U 20035Y   25363.91670139  .00087755  00000+0  24057-2 0  9997,2 45679  53.0539   7.6859 0001489  86.8471 322.2224 15.36565987  5747
STARLINK-1402,45685,53.0535,0.0006785,15.33406561,461.01402968879756,470.3010588853949,1 45685U 20035AE  25363.78812838  .00118438  00000+0  35699-2 0  9990,2 45685  53.0535 353.3873 0006785  21.8060 338.3228 15.33406561308583
STARLINK-1404,45686,53.0544,0.0001347,15.06387116,546.3181960543134,548.1838955938583,1 45686U 20035AF  25363.40763008 -.00006237  00000+0 -40035-3 0  9990,2 45686  53.0544  12.1300 0001347  85.5704 274.5438 15.06387116308285
STARLINK-1413,45689,53.0549,0.0001234,15.06389793,546.3882492274479,548.0974329722321,1 45689U 20035AJ  25363.75778966 -.00004148  00000+0 -25981-3 0  9992,2 45689  53.0549  10.5531 0001234  92.1331 267.9799 15.06389793308241
STARLINK-1417,45693,53.055,0.0004481,15.08518484,537.6259666454334,543.8266519432227,1 45693U 20035AN  25363.72577461  .00040580  00000+0  25751-2 0  9993,2 45693  53.0550  10.4024 0004481  33.8768 326.2508 15.08518484308326
STARLINK-1420,45695,53.0556,0.0001416,15.06429062,546.1418717823617,548.1031052695125,1 45695U 20035AQ  25363.35692139  .00007141  00000+0  49744-3 0  9999,2 45695  53.0556 352.3462 0001416  83.3147 276.8003 15.06429062308550
STARLINK-1422,45696,53.0541,0.0001363,15.06407046,546.246040982197,548.1338851123237,1 45696U 20035AR  25363.76517005  .00005334  00000+0  37662-3 0  9991,2 45696  53.0541  10.5235 0001363  92.2564 267.8581 15.06407046308323
STARLINK-1351,45697,53.0557,0.0001531,15.09879324,535.5097723126646,537.6270551103426,1 45697U 20035AS  25363.19548531  .00034824  00000+0  21336-2 0  9993,2 45697  53.0557 352.9256 0001531  88.5058 271.6108 15.09879324308536
STARLINK-1398,45699,53.0477,0.0006836,15.64003741,371.4883064391797,380.7227067942249,1 45699U 20035AU  25363.91670139  .00144832  00000+0  14836-2 0  9993,2 45699  53.0477 288.1443 0006836  86.0984  49.0795 15.64003741  5931
STARLINK-1400,45700,53.0549,0.0001493,15.06413705,546.1356061370379,548.2035026741833,1 45700U 20035AV  25363.18463838  .00005748  00000+0  40434-3 0  9997,2 45700  53.0549 353.1275 0001493  84.2778 275.8382 15.06413705308528
STARLINK-1403,45701,53.056,0.0001471,15.06391962,546.2174709633937,548.2549157568801,1 45701U 20035AW  25363.34682249  .00001266  00000+0  10387-3 0  9990,2 45701  53.0560 352.4028 0001471  93.2555 266.8603 15.06391962308547
STARLINK-1407,45703,53.0402,0.0005261,15.47173015,421.42144125350114,428.5797026066866,1 45703U 20035AY  25363.11957612  .00035620  00000+0  69503-3 0  9991,2 45703  53.0402 296.2240 0005261 227.5129 132.5433 15.47173015309324
STARLINK-1411,45706,53.0509,0.0002161,15.50423622,414.0202041801649,416.9564090376816,1 45706U 20035BB  25363.16166791  .00076569  00000+0  13183-2 0  9998,2 45706  53.0509 322.8779 0002161  99.1889 260.9364 15.50423622308942
STARLINK-1423,45710,53.056,0.000172,15.0640696,545.9990703398526,548.3813829058108,1 45710U 20035BF  25363.37261035  .00001268  00000+0  10398-3 0  9993,2 45710  53.0560 352.2818 0001720  99.3149 260.8035 15.06406960308554
STARLINK-1433,45711,53.0562,0.000139,15.06424856,546.172766065004,548.0979917863442,1 45711U 20035BG  25363.35418025  .00008616  00000+0  59621-3 0  9991,2 45711  53.0562 352.3700 0001390  95.2414 264.8733 15.06424856308543
STARLINK-1434,45712,53.0484,0.0001825,15.19524827,506.01908412481407,508.5322597500717,1 45712U 20035BH  25363.34817271  .00016133  00000+0  76325-3 0  9990,2 45712  53.0484 343.9674 0001825 355.4693   4.6285 15.19524827308675
STARLINK-1465,45731,53.0537,0.0001434,15.0640464,546.2042440991308,548.1904299869957,1 45731U 20038B   25363.78544126  .00002646  00000+0  19646-3 0  9995,2 45731  53.0537 190.4300 0001434  89.5373 270.5781 15.06404640305658
STARLINK-1471,45735,53.0492,0.0001373,15.43851886,433.8182584779224,435.6890782554565,1 45735U 20038F   25363.51801467  .00033973  00000+0  74325-3 0  9996,2 45735  53.0492 116.8767 0001373  71.2062 288.9092 15.43851886306676
STARLINK-1474,45738,53.0318,0.000379,15.80217444,327.28288593403977,332.36752128437547,1 45738U 20038J   25363.91670139  .00194419  00000+0  99561-3 0  9995,2 45738  53.0318  58.9661 0003790  47.7755 240.4958 15.80217444  6035
STARLINK-1480,45741,53.0534,7.02e-05,15.36296471,456.5924963337329,457.5521597233883,1 45741U 20038M   25363.91670139  .00152690  00000+0  41781-2 0  9994,2 45741  53.0534 188.1365 0000702  98.3400 150.2556 15.36296471  5630
STARLINK-1500,45744,53.0378,0.0002285,15.30702813,472.148523420944,475.2798194062789,1 45744U 20038Q   25363.71284189  .00036314  00000+0  12131-2 0  9992,2 45744  53.0378 159.9867 0002285  67.4521 292.6720 15.30702813306084
STARLINK-1504,45746,53.0242,0.0001039,15.47382403,423.6800532431762,425.0936176961868,1 45746U 20038S   25363.56055933  .00039975  00000+0  77320-3 0  9998,2 45746  53.0242 119.2052 0001039  12.8002 347.3031 15.47382403306636
STARLINK-1506,45747,53.0737,0.0003297,15.23645524,492.58965167180213,497.1217030432508,1 45747U 20038T   25363.73054022  .00016281  00000+0  68282-3 0  9998,2 45747  53.0737 165.3557 0003297  70.1036 290.0315 15.23645524306011
STARLINK-1464,45751,53.0539,0.000127,15.06407257,546.3097999255879,548.0688328099459,1 45751U 20038X   25363.76884507  .00001100  00000+0  92678-4 0  9996,2 45751  53.0539 170.5036 0001270  93.9552 266.1582 15.06407257305942
STARLINK-1477,45754,53.0517,0.0006373,15.09835577,532.295153760343,541.1088075250691,1 45754U 20038AA  25363.77343308  .00042470  00000+0  25976-2 0  9999,2 45754  53.0517 169.6751 0006373 143.4312 216.7114 15.09835577305954
STARLINK-1478,45755,53.0535,9.03e-05,15.12192088,528.8925675163873,530.1400897075346,1 45755U 20038AB  25363.91670139  .02064421  00000+0  10772+0 0  9998,2 45755  53.0535 169.7325 0000903  83.2647 233.9908 15.12192088  5831
STARLINK-1484,45756,53.0118,0.0003306,15.73435137,346.8638505186864,351.31189160343183,1 45756U 20038AC  25363.91670139  .00132546  00000+0  92429-3 0  9994,2 45756  53.0118  49.4742 0003306  32.8474 100.7398 15.73435137  6011
STARLINK-1493,45759,53.0556,0.0001383,15.06406641,546.2334314138761,548.1489771951865,1 45759U 20038AF  25363.79096632  .00001402  00000+0  11299-3 0  9995,2 45759  53.0556 170.4041 0001383  90.3870 269.7277 15.06406641305938
STARLINK-1494,45760,53.0521,0.0002834,15.56835638,394.9018765497085,398.74192325417334,1 45760U 20038AG  25363.63516997  .00062521  00000+0  85581-3 0  9995,2 45760  53.0521 136.1757 0002834 193.1332 166.9605 15.56835638306416
STARLINK-1502,45764,53.0546,0.0001373,15.06406648,546.2403352911915,548.142030410203,1 45764U 20038AL  25363.75778630  .00001631  00000+0  12836-3 0  9994,2 45764  53.0546 170.5535 0001373  82.1442 277.9703 15.06406648305948
STARLINK-1470,45772,53.0495,0.0005081,15.22221224,495.64790867753527,502.6365998557203,1 45772U 20038AU  25363.61425616  .00093722  00000+0  39883-2 0  9993,2 45772  53.0495 138.0749 0005081 123.0207 237.1278 15.22221224306387
